[{"OBJECT_NAME":"STARLINK-5460","OBJECT_ID":"2023-021AV","EPOCH":"2026-03-09T17:15:11.900736","MEAN_MOTION":14.98331499,"ECCENTRICITY":0.00033933,"INCLINATION":70.0005,"RA_OF_ASC_NODE":164.5846,"ARG_OF_PERICENTER":266.0786,"MEAN_ANOMALY":93.9985,"EPHEMERIS_TYPE":0,"CLASSIFICATION_TYPE":"U","NORAD_CAT_ID":55671,"ELEMENT_SET_NO":999,"REV_AT_EPOCH":16928,"BSTAR":-2.735351e-5,"MEAN_MOTION_DOT":-4.19e-6,"MEAN_MOTION_DDOT":0},{"OBJECT_NAME":"CZ-2D R\/B","OBJECT_ID":"2010-027B","EPOCH":"2026-03-09T19:01:31.304352","MEAN_MOTION":15.02332282,"ECCENTRICITY":0.00475082,"INCLINATION":97.9913,"RA_OF_ASC_NODE":95.0303,"ARG_OF_PERICENTER":252.3591,"MEAN_ANOMALY":107.2442,"EPHEMERIS_TYPE":0,"CLASSIFICATION_TYPE":"U","NORAD_CAT_ID":36597,"ELEMENT_SET_NO":999,"REV_AT_EPOCH":85595,"BSTAR":0.00022535675,"MEAN_MOTION_DOT":2.983e-5,"MEAN_MOTION_DDOT":0}]
